[{"OBJECT_NAME":"TRANSPORTER-12 OBJECT AZ","OBJECT_ID":"2025-009AZ","EPOCH":"2026-03-09T17:02:46.667040","MEAN_MOTION":15.30349724,"ECCENTRICITY":9.87e-5,"INCLINATION":97.3981,"RA_OF_ASC_NODE":151.9913,"ARG_OF_PERICENTER":45.3581,"MEAN_ANOMALY":314.774,"EPHEMERIS_TYPE":0,"CLASSIFICATION_TYPE":"U","NORAD_CAT_ID":62656,"ELEMENT_SET_NO":999,"REV_AT_EPOCH":6379,"BSTAR":0.00054902545,"MEAN_MOTION_DOT":0.00016057,"MEAN_MOTION_DDOT":0},{"OBJECT_NAME":"STARLINK-36477","OBJECT_ID":"2026-003X","EPOCH":"2026-03-09T12:26:40.406208","MEAN_MOTION":15.27584482,"ECCENTRICITY":0.00016335,"INCLINATION":42.9992,"RA_OF_ASC_NODE":228.3793,"ARG_OF_PERICENTER":273.3518,"MEAN_ANOMALY":86.7146,"EPHEMERIS_TYPE":0,"CLASSIFICATION_TYPE":"U","NORAD_CAT_ID":67355,"ELEMENT_SET_NO":999,"REV_AT_EPOCH":879,"BSTAR":0.0011659963,"MEAN_MOTION_DOT":0.00031967,"MEAN_MOTION_DDOT":0}]
