TRANSPORTER-12 OBJECT AZ
1 62656U 25009AZ  26068.71026235  .00016057  00000+0  54903-3 0  9991
2 62656  97.3981 151.9913 0000987  45.3581 314.7740 15.30349724 63792
STARLINK-36477          
1 67355U 26003X   26068.51852322  .00031967  00000+0  11660-2 0  9998
2 67355  42.9992 228.3793 0001633 273.3518  86.7146 15.27584482  8791
